[
  {
    "plz": "01623",
    "name": "Zscheilitz",
    "lat": 51.2021198,
    "lng": 13.2783877,
    "durationByCar": 70,
    "durationByPublicTransport": 171
  },
  {
    "plz": "08485",
    "name": "Wolfspfütz",
    "lat": 50.5693132,
    "lng": 12.3661079,
    "durationByCar": 89,
    "durationByPublicTransport": 150
  },
  {
    "plz": "04769",
    "name": "Zschannewitz",
    "lat": 51.236385,
    "lng": 13.0452199,
    "durationByCar": 54,
    "durationByPublicTransport": 130
  },
  {
    "plz": "09127",
    "name": "Yorckgebiet",
    "lat": 50.8183343,
    "lng": 12.9655202,
    "durationByCar": 77,
    "durationByPublicTransport": 307
  },
  {
    "plz": "01561",
    "name": "Zschorna",
    "lat": 51.2834635,
    "lng": 13.6765407,
    "durationByCar": 96,
    "durationByPublicTransport": 460
  },
  {
    "plz": "04886",
    "name": "Zwethau",
    "lat": 51.5764765,
    "lng": 13.0853524,
    "durationByCar": 91,
    "durationByPublicTransport": 134
  },
  {
    "plz": "09221",
    "name": "Neukirchen",
    "lat": 50.7793722,
    "lng": 12.8669818,
    "durationByCar": 69,
    "durationByPublicTransport": 173
  },
  {
    "plz": "08626",
    "name": "Wohlbach",
    "lat": 50.3453106,
    "lng": 12.2426911,
    "durationByCar": 113,
    "durationByPublicTransport": 228
  },
  {
    "plz": "08294",
    "name": "Lößnitz",
    "lat": 50.6155565,
    "lng": 12.7521138,
    "durationByCar": 84,
    "durationByPublicTransport": 188
  },
  {
    "plz": "09326",
    "name": "Neuwallwitz",
    "lat": 51.0778024,
    "lng": 12.9057027,
    "durationByCar": 68,
    "durationByPublicTransport": 131
  },
  {
    "plz": "08321",
    "name": "Zschorlau",
    "lat": 50.5628061,
    "lng": 12.641115,
    "durationByCar": 95,
    "durationByPublicTransport": 190
  },
  {
    "plz": "08280",
    "name": "Aue",
    "lat": 50.5943135,
    "lng": 12.7061804,
    "durationByCar": 83,
    "durationByPublicTransport": 163
  },
  {
    "plz": "04420",
    "name": "Thronitz",
    "lat": 51.2878749,
    "lng": 12.2127083,
    "durationByCar": 28,
    "durationByPublicTransport": 67
  },

  {
    "plz": "08371",
    "name": "Wernsdorf",
    "lat": 50.8065808,
    "lng": 12.5499009,
    "durationByCar": 79,
    "durationByPublicTransport": 416
  },
  {
    "plz": "04683",
    "name": "Threna",
    "lat": 51.2787522,
    "lng": 12.591811,
    "durationByCar": 35,
    "durationByPublicTransport": 60
  },
  {
    "plz": "08529",
    "name": "Reichenbacher Vorstadt",
    "lat": 50.4943032,
    "lng": 12.1729563,
    "durationByCar": 96,
    "durationByPublicTransport": 168
  },
  {
    "plz": "02748",
    "name": "Russen",
    "lat": 51.04724,
    "lng": 14.8270791,
    "durationByCar": 141,
    "durationByPublicTransport": 483
  },
  {
    "plz": "09111",
    "name": "Zentrum",
    "lat": 50.8365233,
    "lng": 12.9239317,
    "durationByCar": 72,
    "durationByPublicTransport": 136
  },
  {
    "plz": "02708",
    "name": "Wohla",
    "lat": 51.0773984,
    "lng": 14.6555802,
    "durationByCar": 127,
    "durationByPublicTransport": 444
  },
  {
    "plz": "01920",
    "name": "Zerna",
    "lat": 51.2406659,
    "lng": 14.0328293,
    "durationByCar": 104,
    "durationByPublicTransport": 490
  },
  {
    "plz": "04828",
    "name": "Zeititz",
    "lat": 51.36439499999999,
    "lng": 12.6883075,
    "durationByCar": 49,
    "durationByPublicTransport": 95
  },
  {
    "plz": "01773",
    "name": "Zinnwald-Georgenfeld",
    "lat": 50.7766262,
    "lng": 13.7364624,
    "durationByCar": 116,
    "durationByPublicTransport": 274
  },
  {
    "plz": "09112",
    "name": "Kaßberg",
    "lat": 50.8330573,
    "lng": 12.9077033,
    "durationByCar": 67,
    "durationByPublicTransport": 154
  },
  {
    "plz": "01855",
    "name": "Sebnitz",
    "lat": 50.9730657,
    "lng": 14.2730156,
    "durationByCar": 126,
    "durationByPublicTransport": 276
  },
  {
    "plz": "04539",
    "name": "Wischstauden",
    "lat": 51.153357,
    "lng": 12.2833315,
    "durationByCar": 42,
    "durationByPublicTransport": 83
  },
  {
    "plz": "09669",
    "name": "Sachsenburg",
    "lat": 50.91810400000001,
    "lng": 13.0685643,
    "durationByCar": 73,
    "durationByPublicTransport": 401
  },
  {
    "plz": "04687",
    "name": "Trebsen/Mulde",
    "lat": 51.2878672,
    "lng": 12.7582113,
    "durationByCar": 41,
    "durationByPublicTransport": 89
  },
  {
    "plz": "04703",
    "name": "Zschockau",
    "lat": 51.15646899999999,
    "lng": 12.9270969,
    "durationByCar": 55,
    "durationByPublicTransport": 104
  },
  {
    "plz": "08541",
    "name": "Zobes",
    "lat": 50.5035535,
    "lng": 12.2239868,
    "durationByCar": 94,
    "durationByPublicTransport": 170
  },
  {
    "plz": "01156",
    "name": "Zöllmen",
    "lat": 51.085544,
    "lng": 13.6276849,
    "durationByCar": 80,
    "durationByPublicTransport": 166
  },
  {
    "plz": "04316",
    "name": "Mölkau",
    "lat": 51.32453959999999,
    "lng": 12.4533516,
    "durationByCar": 28,
    "durationByPublicTransport": 69
  },
  {
    "plz": "01594",
    "name": "Wilschwitz",
    "lat": 51.2606788,
    "lng": 13.2323241,
    "durationByCar": 71,
    "durationByPublicTransport": 113
  },
  {
    "plz": "02956",
    "name": "Teicha",
    "lat": 51.39640929999999,
    "lng": 14.7859055,
    "durationByCar": 142,
    "durationByPublicTransport": 405
  },

  {
    "plz": "08606",
    "name": "Zettlarsgrün",
    "lat": 50.3625638,
    "lng": 12.0797301,
    "durationByCar": 107,
    "durationByPublicTransport": 247
  },
  {
    "plz": "08233",
    "name": "Wetzelsgrün",
    "lat": 50.5371205,
    "lng": 12.313432,
    "durationByCar": 93,
    "durationByPublicTransport": 189
  },
  {
    "plz": "09648",
    "name": "Zschöppichen",
    "lat": 50.970958,
    "lng": 12.9761119,
    "durationByCar": 74,
    "durationByPublicTransport": 144
  },
  {
    "plz": "04654",
    "name": "Wüstenhain",
    "lat": 51.0576395,
    "lng": 12.5768999,
    "durationByCar": 50,
    "durationByPublicTransport": 154
  },
  {
    "plz": "04643",
    "name": "Wickershain",
    "lat": 51.0550708,
    "lng": 12.6859531,
    "durationByCar": 48,
    "durationByPublicTransport": 83
  },
  {
    "plz": "02826",
    "name": "Südstadt",
    "lat": 51.14819749999999,
    "lng": 14.975409,
    "durationByCar": 132,
    "durationByPublicTransport": 219
  },
  {
    "plz": "08523",
    "name": "Thiergarten",
    "lat": 50.4979145,
    "lng": 12.1139095,
    "durationByCar": 105,
    "durationByPublicTransport": 155
  },
  {
    "plz": "08340",
    "name": "Wildenau/Brückenberg",
    "lat": 50.5293301,
    "lng": 12.7701222,
    "durationByCar": 99,
    "durationByPublicTransport": 196
  },
  {
    "plz": "09306",
    "name": "Zschoppelshain",
    "lat": 51.0447384,
    "lng": 12.7905483,
    "durationByCar": 59,
    "durationByPublicTransport": 120
  },
  {
    "plz": "09322",
    "name": "Zinnberg",
    "lat": 50.938449,
    "lng": 12.6975126,
    "durationByCar": 52,
    "durationByPublicTransport": 114
  },
  {
    "plz": "04874",
    "name": "Wohlau",
    "lat": 51.482398,
    "lng": 13.1255774,
    "durationByCar": 87,
    "durationByPublicTransport": 113
  },
  {
    "plz": "01762",
    "name": "Schönfeld",
    "lat": 50.8302784,
    "lng": 13.5570383,
    "durationByCar": 105,
    "durationByPublicTransport": 329
  },
  {
    "plz": "04318",
    "name": "Sellerhausen-Stünz",
    "lat": 51.336667,
    "lng": 12.4287949,
    "durationByCar": 24,
    "durationByPublicTransport": 62
  },
  {
    "plz": "09456",
    "name": "Plattenthal",
    "lat": 50.58149530000001,
    "lng": 13.0552336,
    "durationByCar": 112,
    "durationByPublicTransport": 540
  },

  {
    "plz": "08359",
    "name": "Tellerhäuser",
    "lat": 50.4662659,
    "lng": 12.7698509,
    "durationByCar": 115,
    "durationByPublicTransport": 254
  },
  {
    "plz": "08261",
    "name": "Zwotental",
    "lat": 50.388063,
    "lng": 12.3328862,
    "durationByCar": 115,
    "durationByPublicTransport": 211
  },
  {
    "plz": "01477",
    "name": "Wallroda",
    "lat": 51.0946097,
    "lng": 13.9891512,
    "durationByCar": 96,
    "durationByPublicTransport": 157
  },
  {
    "plz": "02633",
    "name": "Zscharnitz",
    "lat": 51.17798390000001,
    "lng": 14.3204467,
    "durationByCar": 104,
    "durationByPublicTransport": 497
  },
  {
    "plz": "09661",
    "name": "Weinsdorf mit Liebenhain",
    "lat": 51.0070443,
    "lng": 13.125568,
    "durationByCar": 72,
    "durationByPublicTransport": 145
  },
  {
    "plz": "02894",
    "name": "Zoblitz",
    "lat": 51.140597,
    "lng": 14.7985276,
    "durationByCar": 122,
    "durationByPublicTransport": 213
  },
  {
    "plz": "04746",
    "name": "Wendishain",
    "lat": 51.0963493,
    "lng": 12.9725726,
    "durationByCar": 67,
    "durationByPublicTransport": 144
  },
  {
    "plz": "04862",
    "name": "Wildschütz",
    "lat": 51.5077396,
    "lng": 12.8169302,
    "durationByCar": 62,
    "durationByPublicTransport": 78
  },
  {
    "plz": "04416",
    "name": "Wachau",
    "lat": 51.2700347,
    "lng": 12.3804126,
    "durationByCar": 20,
    "durationByPublicTransport": 61
  },
  {
    "plz": "01468",
    "name": "Steinbach",
    "lat": 51.16768399999999,
    "lng": 13.6637681,
    "durationByCar": 91,
    "durationByPublicTransport": 480
  },
  {
    "plz": "08066",
    "name": "Pöhlau",
    "lat": 50.7321344,
    "lng": 12.5063011,
    "durationByCar": 84,
    "durationByPublicTransport": 130
  },
  {
    "plz": "08209",
    "name": "Schnarrtanne",
    "lat": 50.4823022,
    "lng": 12.4322236,
    "durationByCar": 106,
    "durationByPublicTransport": 189
  },
  {
    "plz": "04749",
    "name": "Zschochau",
    "lat": 51.2065428,
    "lng": 13.146946,
    "durationByCar": 58,
    "durationByPublicTransport": 123
  },
  {
    "plz": "09244",
    "name": "Ottendorf",
    "lat": 50.9140569,
    "lng": 12.9473728,
    "durationByCar": 70,
    "durationByPublicTransport": 165
  },
  {
    "plz": "09573",
    "name": "Schellenberg",
    "lat": 50.8081717,
    "lng": 13.104331,
    "durationByCar": 88,
    "durationByPublicTransport": 198
  },
  {
    "plz": "02625",
    "name": "Westvorstadt",
    "lat": 51.1815867,
    "lng": 14.4230008,
    "durationByCar": 106,
    "durationByPublicTransport": 195
  },
  {
    "plz": "01906",
    "name": "Uhyst a. Taucher",
    "lat": 51.1757343,
    "lng": 14.1795979,
    "durationByCar": 98,
    "durationByPublicTransport": 461
  },
  {
    "plz": "01097",
    "name": "Pieschen-Nord/Leipziger Vorstadt",
    "lat": 51.0659081,
    "lng": 13.7361525,
    "durationByCar": 83,
    "durationByPublicTransport": 130
  },
  {
    "plz": "04758",
    "name": "Zöschau",
    "lat": 51.3491511,
    "lng": 13.1111395,
    "durationByCar": 78,
    "durationByPublicTransport": 147
  },
  {
    "plz": "04720",
    "name": "Zunschwitz",
    "lat": 51.1343172,
    "lng": 13.1272418,
    "durationByCar": 57,
    "durationByPublicTransport": 144
  },

  {
    "plz": "01731",
    "name": "Zscheckwitz",
    "lat": 50.94428689999999,
    "lng": 13.7586934,
    "durationByCar": 91,
    "durationByPublicTransport": 218
  },
  {
    "plz": "08648",
    "name": "Schönberg",
    "lat": 50.221312,
    "lng": 12.3079795,
    "durationByCar": 133,
    "durationByPublicTransport": 206
  },
  {
    "plz": "08645",
    "name": "Sohl",
    "lat": 50.2821802,
    "lng": 12.232541,
    "durationByCar": 121,
    "durationByPublicTransport": 194
  },
  {
    "plz": "01816",
    "name": "Oelsen",
    "lat": 50.8484584,
    "lng": 13.9407149,
    "durationByCar": 96,
    "durationByPublicTransport": 478
  },
  {
    "plz": "04651",
    "name": "Trebishain",
    "lat": 51.1354419,
    "lng": 12.6417913,
    "durationByCar": 52,
    "durationByPublicTransport": 79
  },
  {
    "plz": "02953",
    "name": "Kromlau",
    "lat": 51.533076,
    "lng": 14.6623392,
    "durationByCar": 159,
    "durationByPublicTransport": 451
  },
  {
    "plz": "01814",
    "name": "Wendischfähre",
    "lat": 50.8882817,
    "lng": 14.1998701,
    "durationByCar": 127,
    "durationByPublicTransport": 496
  },
  {
    "plz": "08301",
    "name": "Wildbach",
    "lat": 50.6050031,
    "lng": 12.6711487,
    "durationByCar": 84,
    "durationByPublicTransport": 170
  },
  {
    "plz": "04509",
    "name": "Zwochau",
    "lat": 51.5233472,
    "lng": 12.3029551,
    "durationByCar": 41,
    "durationByPublicTransport": 97
  },
  {
    "plz": "09600",
    "name": "Weißenborn/Erzgeb.",
    "lat": 50.8970724,
    "lng": 13.2538388,
    "durationByCar": 85,
    "durationByPublicTransport": 489
  },
  {
    "plz": "09599",
    "name": "Wasserberg West",
    "lat": 50.90938629999999,
    "lng": 13.3291918,
    "durationByCar": 85,
    "durationByPublicTransport": 241
  },
  {
    "plz": "04838",
    "name": "Zschettgau",
    "lat": 51.4869004,
    "lng": 12.6411982,
    "durationByCar": 63,
    "durationByPublicTransport": 88
  },
  {
    "plz": "01819",
    "name": "Zwiesel",
    "lat": 50.8744768,
    "lng": 13.9492958,
    "durationByCar": 95,
    "durationByPublicTransport": 472
  },
  {
    "plz": "04668",
    "name": "Zschoppach",
    "lat": 51.21877420000001,
    "lng": 12.7537203,
    "durationByCar": 48,
    "durationByPublicTransport": 116
  },
  {
    "plz": "01728",
    "name": "Wilmsdorf",
    "lat": 50.9902277,
    "lng": 13.7244064,
    "durationByCar": 83,
    "durationByPublicTransport": 202
  },
  {
    "plz": "01768",
    "name": "Schlottwitz",
    "lat": 50.85093089999999,
    "lng": 13.7803191,
    "durationByCar": 103,
    "durationByPublicTransport": 236
  },
  {
    "plz": "08147",
    "name": "Obercrinitz",
    "lat": 50.56228280000001,
    "lng": 12.5185439,
    "durationByCar": 95,
    "durationByPublicTransport": 197
  },
  {
    "plz": "01665",
    "name": "Zetta",
    "lat": 51.0954089,
    "lng": 13.4641847,
    "durationByCar": 76,
    "durationByPublicTransport": 159
  },
  {
    "plz": "01471",
    "name": "Ziegelei",
    "lat": 51.2011969,
    "lng": 13.7403313,
    "durationByCar": 80,
    "durationByPublicTransport": 468
  },
  {
    "plz": "08543",
    "name": "Trieb",
    "lat": 50.5579773,
    "lng": 12.1718081,
    "durationByCar": 98,
    "durationByPublicTransport": 139
  },
  {
    "plz": "02694",
    "name": "Zschillichau",
    "lat": 51.2663909,
    "lng": 14.5133415,
    "durationByCar": 116,
    "durationByPublicTransport": 311
  },
  {
    "plz": "02943",
    "name": "Zimpel",
    "lat": 51.4269314,
    "lng": 14.5988026,
    "durationByCar": 143,
    "durationByPublicTransport": 534
  },
  {
    "plz": "02627",
    "name": "Zschorna",
    "lat": 51.1485841,
    "lng": 14.5695538,
    "durationByCar": 118,
    "durationByPublicTransport": 208
  },
  {
    "plz": "04889",
    "name": "Weßnig",
    "lat": 51.4565018,
    "lng": 12.9272771,
    "durationByCar": 68,
    "durationByPublicTransport": 103
  },
  {
    "plz": "02681",
    "name": "Wurbis",
    "lat": 51.0972443,
    "lng": 14.3935792,
    "durationByCar": 118,
    "durationByPublicTransport": 196
  },
  {
    "plz": "01774",
    "name": "Ruppendorf",
    "lat": 50.87291039999999,
    "lng": 13.526344,
    "durationByCar": 99,
    "durationByPublicTransport": 539
  },
  {
    "plz": "08344",
    "name": "Waschleithe",
    "lat": 50.5680349,
    "lng": 12.7978949,
    "durationByCar": 93,
    "durationByPublicTransport": 186
  },
  {
    "plz": "02736",
    "name": "Zwenke",
    "lat": 51.0565822,
    "lng": 14.5050339,
    "durationByCar": 131,
    "durationByPublicTransport": 454
  },
  {
    "plz": "08427",
    "name": "Ruppertsgrün",
    "lat": 50.7007725,
    "lng": 12.3576756,
    "durationByCar": 92,
    "durationByPublicTransport": 131
  },
  {
    "plz": "01877",
    "name": "Wölkau",
    "lat": 51.1344289,
    "lng": 14.2020056,
    "durationByCar": 107,
    "durationByPublicTransport": 256
  },
  {
    "plz": "02692",
    "name": "Techritz",
    "lat": 51.1222369,
    "lng": 14.4406271,
    "durationByCar": 117,
    "durationByPublicTransport": 460
  },
  {
    "plz": "08538",
    "name": "Weischlitz",
    "lat": 50.4474159,
    "lng": 12.0580615,
    "durationByCar": 93,
    "durationByPublicTransport": 166
  },
  {
    "plz": "01917",
    "name": "Zschornau",
    "lat": 51.2841235,
    "lng": 14.1133767,
    "durationByCar": 112,
    "durationByPublicTransport": 265
  },
  {
    "plz": "08315",
    "name": "Oberpfannenstiel",
    "lat": 50.5766714,
    "lng": 12.7703191,
    "durationByCar": 89,
    "durationByPublicTransport": 209
  },
  {
    "plz": "02994",
    "name": "Zeißholz",
    "lat": 51.373395,
    "lng": 14.0679133,
    "durationByCar": 120,
    "durationByPublicTransport": 518
  },
  {
    "plz": "09337",
    "name": "Wüstenbrand",
    "lat": 50.8347045,
    "lng": 12.6789329,
    "durationByCar": 70,
    "durationByPublicTransport": 233
  },
  {
    "plz": "09120",
    "name": "Bernsdorf",
    "lat": 50.804263,
    "lng": 12.9051769,
    "durationByCar": 71,
    "durationByPublicTransport": 367
  },

  {
    "plz": "02747",
    "name": "Strahwalde",
    "lat": 51.0275548,
    "lng": 14.7542719,
    "durationByCar": 138,
    "durationByPublicTransport": 480
  },
  {
    "plz": "01825",
    "name": "Waltersdorf",
    "lat": 50.8618191,
    "lng": 13.8521893,
    "durationByCar": 96,
    "durationByPublicTransport": 267
  },
  {
    "plz": "09328",
    "name": "Rochsburg",
    "lat": 50.96988289999999,
    "lng": 12.7485375,
    "durationByCar": 55,
    "durationByPublicTransport": 158
  },
  {
    "plz": "08132",
    "name": "Wulm",
    "lat": 50.74020849999999,
    "lng": 12.5776638,
    "durationByCar": 80,
    "durationByPublicTransport": 149
  },
  {
    "plz": "01844",
    "name": "Rugiswalde",
    "lat": 51.035552,
    "lng": 14.2260006,
    "durationByCar": 111,
    "durationByPublicTransport": 255
  },
  {
    "plz": "02763",
    "name": "Zittau",
    "lat": 50.9241386,
    "lng": 14.7701227,
    "durationByCar": 148,
    "durationByPublicTransport": 477
  },
  {
    "plz": "04821",
    "name": "Polenz",
    "lat": 51.3299748,
    "lng": 12.613431,
    "durationByCar": 39,
    "durationByPublicTransport": 81
  },
  {
    "plz": "09366",
    "name": "Stollberg/Erzgeb.",
    "lat": 50.6988436,
    "lng": 12.7615961,
    "durationByCar": 70,
    "durationByPublicTransport": 213
  },
  {
    "plz": "09629",
    "name": "Steinbach",
    "lat": 51.0098256,
    "lng": 13.3779264,
    "durationByCar": 69,
    "durationByPublicTransport": 211
  },
  {
    "plz": "02923",
    "name": "Wiesa",
    "lat": 51.2327935,
    "lng": 14.8952089,
    "durationByCar": 125,
    "durationByPublicTransport": 478
  },
  {
    "plz": "01824",
    "name": "Rosenthal",
    "lat": 50.87198679999999,
    "lng": 14.0425613,
    "durationByCar": 106,
    "durationByPublicTransport": 292
  },
  {
    "plz": "04519",
    "name": "Zschortau",
    "lat": 51.4692784,
    "lng": 12.3597817,
    "durationByCar": 33,
    "durationByPublicTransport": 118
  },
  {
    "plz": "01723",
    "name": "Wilsdruff",
    "lat": 51.0502972,
    "lng": 13.5362057,
    "durationByCar": 69,
    "durationByPublicTransport": 469
  },
  {
    "plz": "04808",
    "name": "Zwochau",
    "lat": 51.38083,
    "lng": 12.8291213,
    "durationByCar": 56,
    "durationByPublicTransport": 113
  },
  {
    "plz": "01705",
    "name": "Zauckerode",
    "lat": 51.0002571,
    "lng": 13.6401737,
    "durationByCar": 86,
    "durationByPublicTransport": 505
  },
  {
    "plz": "01796",
    "name": "Zuschendorf",
    "lat": 50.9397088,
    "lng": 13.9671509,
    "durationByCar": 98,
    "durationByPublicTransport": 235
  },
  {
    "plz": "08451",
    "name": "Rudelswalde",
    "lat": 50.8073347,
    "lng": 12.3475959,
    "durationByCar": 83,
    "durationByPublicTransport": 142
  },
  {
    "plz": "01277",
    "name": "Tolkewitz",
    "lat": 51.0374106,
    "lng": 13.7964562,
    "durationByCar": 94,
    "durationByPublicTransport": 186
  },
  {
    "plz": "08309",
    "name": "Wolfsgrün",
    "lat": 50.49494139999999,
    "lng": 12.5996586,
    "durationByCar": 105,
    "durationByPublicTransport": 210
  },
  {
    "plz": "09526",
    "name": "Schönfeld",
    "lat": 50.6588398,
    "lng": 13.338131,
    "durationByCar": 118,
    "durationByPublicTransport": 333
  },

  {
    "plz": "08056",
    "name": "Schedewitz/Geinitzsiedlung",
    "lat": 50.7017384,
    "lng": 12.4951376,
    "durationByCar": 83,
    "durationByPublicTransport": 116
  },
  {
    "plz": "04680",
    "name": "Zschirla",
    "lat": 51.1322299,
    "lng": 12.8002136,
    "durationByCar": 60,
    "durationByPublicTransport": 98
  },
  {
    "plz": "01683",
    "name": "Wunschwitz",
    "lat": 51.0799296,
    "lng": 13.3231137,
    "durationByCar": 63,
    "durationByPublicTransport": 208
  },
  {
    "plz": "04564",
    "name": "Großdeuben",
    "lat": 51.20127549999999,
    "lng": 12.3882958,
    "durationByCar": 30,
    "durationByPublicTransport": 61
  },
  {
    "plz": "04178",
    "name": "Burghausen-Rückmarsdorf",
    "lat": 51.36048700000001,
    "lng": 12.2821163,
    "durationByCar": 11,
    "durationByPublicTransport": 28
  },
  {
    "plz": "04774",
    "name": "Schwarzer Kater",
    "lat": 51.37363089999999,
    "lng": 12.9889626,
    "durationByCar": 65,
    "durationByPublicTransport": 110
  },
  {
    "plz": "04552",
    "name": "Zedtlitz",
    "lat": 51.1304093,
    "lng": 12.4930461,
    "durationByCar": 42,
    "durationByPublicTransport": 98
  },
  {
    "plz": "09114",
    "name": "Glösa-Draisdorf",
    "lat": 50.8681335,
    "lng": 12.9121178,
    "durationByCar": 65,
    "durationByPublicTransport": 184
  },
  {
    "plz": "09569",
    "name": "Wingendorf",
    "lat": 50.8736601,
    "lng": 13.1795546,
    "durationByCar": 83,
    "durationByPublicTransport": 476
  },
  {
    "plz": "01328",
    "name": "Zaschendorf",
    "lat": 51.0334817,
    "lng": 13.8952564,
    "durationByCar": 107,
    "durationByPublicTransport": 464
  },
  {
    "plz": "04451",
    "name": "Zweenfurth",
    "lat": 51.3489935,
    "lng": 12.5460737,
    "durationByCar": 36,
    "durationByPublicTransport": 50
  },
  {
    "plz": "09579",
    "name": "Grünhainichen",
    "lat": 50.7727755,
    "lng": 13.1826447,
    "durationByCar": 99,
    "durationByPublicTransport": 542
  },
  {
    "plz": "01809",
    "name": "Weesenstein",
    "lat": 50.9533266,
    "lng": 13.8547751,
    "durationByCar": 87,
    "durationByPublicTransport": 233
  },
  {
    "plz": "08060",
    "name": "Marienthal West",
    "lat": 50.7278136,
    "lng": 12.4491406,
    "durationByCar": 91,
    "durationByPublicTransport": 126
  },
  {
    "plz": "09618",
    "name": "St. Michaelis",
    "lat": 50.798815,
    "lng": 13.3218443,
    "durationByCar": 101,
    "durationByPublicTransport": 505
  },
  {
    "plz": "04824",
    "name": "Brandis",
    "lat": 51.3228072,
    "lng": 12.5617867,
    "durationByCar": 35,
    "durationByPublicTransport": 65
  },
  {
    "plz": "09212",
    "name": "Wolkenburg-Kaufungen",
    "lat": 50.8676316,
    "lng": 12.7159205,
    "durationByCar": 60,
    "durationByPublicTransport": 190
  },
  {
    "plz": "09577",
    "name": "Niederwiesa",
    "lat": 50.8633227,
    "lng": 13.0154259,
    "durationByCar": 73,
    "durationByPublicTransport": 350
  },
  {
    "plz": "04567",
    "name": "Trages",
    "lat": 51.188107,
    "lng": 12.5485655,
    "durationByCar": 38,
    "durationByPublicTransport": 100
  },
  {
    "plz": "08258",
    "name": "Wohlhausen",
    "lat": 50.3051377,
    "lng": 12.3244969,
    "durationByCar": 126,
    "durationByPublicTransport": 202
  },
  {
    "plz": "02929",
    "name": "Uhsmannsdorf",
    "lat": 51.3326796,
    "lng": 14.9654413,
    "durationByCar": 144,
    "durationByPublicTransport": 465
  },
  {
    "plz": "01900",
    "name": "Kleinröhrsdorf",
    "lat": 51.14654669999999,
    "lng": 14.0245274,
    "durationByCar": 94,
    "durationByPublicTransport": 170
  },
  {
    "plz": "04575",
    "name": "Neukieritzsch",
    "lat": 51.1499858,
    "lng": 12.4104895,
    "durationByCar": 42,
    "durationByPublicTransport": 60
  },
  {
    "plz": "01157",
    "name": "Stetzsch",
    "lat": 51.06341339999999,
    "lng": 13.6678312,
    "durationByCar": 77,
    "durationByPublicTransport": 164
  },
  {
    "plz": "02997",
    "name": "Wittichenau",
    "lat": 51.38362240000001,
    "lng": 14.2431905,
    "durationByCar": 124,
    "durationByPublicTransport": 505
  },
  {
    "plz": "08491",
    "name": "Ziegelei",
    "lat": 50.6135241,
    "lng": 12.2451845,
    "durationByCar": 95,
    "durationByPublicTransport": 130
  },
  {
    "plz": "01640",
    "name": "Sörnewitz",
    "lat": 51.131589,
    "lng": 13.5638128,
    "durationByCar": 90,
    "durationByPublicTransport": 144
  },
  {
    "plz": "02977",
    "name": "Zeißig",
    "lat": 51.424958,
    "lng": 14.1861706,
    "durationByCar": 134,
    "durationByPublicTransport": 509
  },
  {
    "plz": "09395",
    "name": "Brünlos",
    "lat": 50.6691692,
    "lng": 12.8857311,
    "durationByCar": 88,
    "durationByPublicTransport": 496
  },
  {
    "plz": "08468",
    "name": "Unterheinsdorf",
    "lat": 50.6203648,
    "lng": 12.3217972,
    "durationByCar": 91,
    "durationByPublicTransport": 148
  },
  {
    "plz": "01324",
    "name": "Weißer Hirsch",
    "lat": 51.0618662,
    "lng": 13.8547719,
    "durationByCar": 99,
    "durationByPublicTransport": 164
  },
  {
    "plz": "01909",
    "name": "Seeligstadt",
    "lat": 51.10808160000001,
    "lng": 14.1052967,
    "durationByCar": 103,
    "durationByPublicTransport": 229
  },
  {
    "plz": "01936",
    "name": "Zeisholz",
    "lat": 51.2656667,
    "lng": 13.9043743,
    "durationByCar": 103,
    "durationByPublicTransport": 275
  },
  {
    "plz": "09217",
    "name": "Schweizerthal",
    "lat": 50.92613919999999,
    "lng": 12.8086635,
    "durationByCar": 61,
    "durationByPublicTransport": 135
  },
  {
    "plz": "09623",
    "name": "Rechenberg-Bienenmühle",
    "lat": 50.76278660000001,
    "lng": 13.5437572,
    "durationByCar": 108,
    "durationByPublicTransport": 294
  },
  {
    "plz": "08107",
    "name": "Wolfersgrün",
    "lat": 50.5927385,
    "lng": 12.5466196,
    "durationByCar": 90,
    "durationByPublicTransport": 194
  },
  {
    "plz": "09235",
    "name": "Meinersdorf",
    "lat": 50.7344175,
    "lng": 12.9225002,
    "durationByCar": 83,
    "durationByPublicTransport": 467
  },
  {
    "plz": "08064",
    "name": "Rottmannsdorf",
    "lat": 50.6774332,
    "lng": 12.4754819,
    "durationByCar": 83,
    "durationByPublicTransport": 132
  },
  {
    "plz": "04779",
    "name": "Wiederoda",
    "lat": 51.3214185,
    "lng": 12.9791264,
    "durationByCar": 64,
    "durationByPublicTransport": 130
  },
  {
    "plz": "02699",
    "name": "Zescha",
    "lat": 51.31058969999999,
    "lng": 14.3291074,
    "durationByCar": 116,
    "durationByPublicTransport": 443
  },
  {
    "plz": "09544",
    "name": "Rauschenbach",
    "lat": 50.6767912,
    "lng": 13.4691343,
    "durationByCar": 122,
    "durationByPublicTransport": 312
  },
  {
    "plz": "01591",
    "name": "Riesa",
    "lat": 51.31704939999999,
    "lng": 13.2520646,
    "durationByCar": 80,
    "durationByPublicTransport": 106
  },
  {
    "plz": "09236",
    "name": "Röllingshain",
    "lat": 50.9409267,
    "lng": 12.8904197,
    "durationByCar": 72,
    "durationByPublicTransport": 159
  },
  {
    "plz": "04277",
    "name": "Marienbrunn",
    "lat": 51.3078032,
    "lng": 12.375401,
    "durationByCar": 16,
    "durationByPublicTransport": 49
  },
  {
    "plz": "09633",
    "name": "Tuttendorf",
    "lat": 50.95503679999999,
    "lng": 13.3476849,
    "durationByCar": 75,
    "durationByPublicTransport": 471
  },
  {
    "plz": "01187",
    "name": "Plauen",
    "lat": 51.0266014,
    "lng": 13.7090684,
    "durationByCar": 87,
    "durationByPublicTransport": 173
  },
  {
    "plz": "07985",
    "name": "Scholas",
    "lat": 50.60956239999999,
    "lng": 12.1702369,
    "durationByCar": 101,
    "durationByPublicTransport": 174
  },

  {
    "plz": "04425",
    "name": "Taucha",
    "lat": 51.39014659999999,
    "lng": 12.5008705,
    "durationByCar": 37,
    "durationByPublicTransport": 77
  },

  {
    "plz": "08058",
    "name": "Weißenborn",
    "lat": 50.7367202,
    "lng": 12.4798711,
    "durationByCar": 83,
    "durationByPublicTransport": 354
  },
  {
    "plz": "09474",
    "name": "Walthersdorf",
    "lat": 50.5117931,
    "lng": 12.9393273,
    "durationByCar": 106,
    "durationByPublicTransport": 564
  },
  {
    "plz": "08112",
    "name": "Wilkau-Haßlau",
    "lat": 50.6725499,
    "lng": 12.511863,
    "durationByCar": 84,
    "durationByPublicTransport": 127
  },
  {
    "plz": "02733",
    "name": "Weigsdorf-Köblitz",
    "lat": 51.0983612,
    "lng": 14.5208403,
    "durationByCar": 126,
    "durationByPublicTransport": 448
  },
  {
    "plz": "01848",
    "name": "Zeschnig",
    "lat": 50.9889401,
    "lng": 14.1559133,
    "durationByCar": 119,
    "durationByPublicTransport": 275
  },
  {
    "plz": "04880",
    "name": "Wörblitz",
    "lat": 51.6386699,
    "lng": 12.8791665,
    "durationByCar": 81,
    "durationByPublicTransport": 112
  },
  {
    "plz": "08459",
    "name": "Neukirchen/Pleiße",
    "lat": 50.7855605,
    "lng": 12.4028739,
    "durationByCar": 83,
    "durationByPublicTransport": 155
  },
  {
    "plz": "02906",
    "name": "Weigersdorf",
    "lat": 51.2846918,
    "lng": 14.705929,
    "durationByCar": 124,
    "durationByPublicTransport": 339
  },
  {
    "plz": "01847",
    "name": "Uttewalde",
    "lat": 50.9891752,
    "lng": 13.9963251,
    "durationByCar": 99,
    "durationByPublicTransport": 503
  },
  {
    "plz": "08539",
    "name": "Unterpirk",
    "lat": 50.5287005,
    "lng": 11.9954859,
    "durationByCar": 91,
    "durationByPublicTransport": 172
  },
  {
    "plz": "08393",
    "name": "Tettau",
    "lat": 50.8558726,
    "lng": 12.4852348,
    "durationByCar": 72,
    "durationByPublicTransport": 169
  },
  {
    "plz": "02829",
    "name": "Zodel",
    "lat": 51.1468545,
    "lng": 14.8852208,
    "durationByCar": 126,
    "durationByPublicTransport": 515
  },
  {
    "plz": "02827",
    "name": "Weinhübel",
    "lat": 51.1123561,
    "lng": 14.9634276,
    "durationByCar": 137,
    "durationByPublicTransport": 484
  },
  {
    "plz": "09548",
    "name": "Oberlochmühle",
    "lat": 50.6483533,
    "lng": 13.4524206,
    "durationByCar": 126,
    "durationByPublicTransport": 328
  },
  {
    "plz": "04574",
    "name": "Deutzen",
    "lat": 51.1234045,
    "lng": 12.4350673,
    "durationByCar": 45,
    "durationByPublicTransport": 109
  },
  {
    "plz": "01612",
    "name": "Zschaiten",
    "lat": 51.2991786,
    "lng": 13.3900947,
    "durationByCar": 90,
    "durationByPublicTransport": 104
  },
  {
    "plz": "02788",
    "name": "Wittgendorf",
    "lat": 50.9436061,
    "lng": 14.8847899,
    "durationByCar": 156,
    "durationByPublicTransport": 385
  },
  {
    "plz": "09439",
    "name": "Wilischthal",
    "lat": 50.7342313,
    "lng": 13.0108691,
    "durationByCar": 88,
    "durationByPublicTransport": 504
  },
  {
    "plz": "01833",
    "name": "Wünschendorf",
    "lat": 51.0488464,
    "lng": 14.0790883,
    "durationByCar": 106,
    "durationByPublicTransport": 241
  },
  {
    "plz": "01237",
    "name": "Seidnitz",
    "lat": 51.0134206,
    "lng": 13.7913392,
    "durationByCar": 87,
    "durationByPublicTransport": 171
  },
  {
    "plz": "04279",
    "name": "Lößnig",
    "lat": 51.29465279999999,
    "lng": 12.3988261,
    "durationByCar": 21,
    "durationByPublicTransport": 48
  },

  {
    "plz": "01159",
    "name": "Wölfnitz",
    "lat": 51.041241,
    "lng": 13.6977528,
    "durationByCar": 84,
    "durationByPublicTransport": 178
  },
  {
    "plz": "01829",
    "name": "Zeichen",
    "lat": 50.95783729999999,
    "lng": 14.024747,
    "durationByCar": 103,
    "durationByPublicTransport": 197
  },
  {
    "plz": "09619",
    "name": "Zethau",
    "lat": 50.7612417,
    "lng": 13.4192075,
    "durationByCar": 110,
    "durationByPublicTransport": 561
  },
  {
    "plz": "08297",
    "name": "Zwönitz",
    "lat": 50.6495135,
    "lng": 12.8257791,
    "durationByCar": 84,
    "durationByPublicTransport": 200
  },
  {
    "plz": "09487",
    "name": "Schlettau",
    "lat": 50.5666404,
    "lng": 12.9538822,
    "durationByCar": 104,
    "durationByPublicTransport": 539
  },
  {
    "plz": "08223",
    "name": "Werda",
    "lat": 50.4481309,
    "lng": 12.3596591,
    "durationByCar": 108,
    "durationByPublicTransport": 189
  },
  {
    "plz": "09430",
    "name": "Wiltzsch",
    "lat": 50.67604679999999,
    "lng": 13.0200248,
    "durationByCar": 96,
    "durationByPublicTransport": 542
  },
  {
    "plz": "09429",
    "name": "Wolkenstein",
    "lat": 50.6558649,
    "lng": 13.0703252,
    "durationByCar": 102,
    "durationByPublicTransport": 551
  },
  {
    "plz": "04463",
    "name": "Störmthal",
    "lat": 51.237716,
    "lng": 12.4831199,
    "durationByCar": 33,
    "durationByPublicTransport": 85
  },
  {
    "plz": "02999",
    "name": "Weißkollm",
    "lat": 51.3941773,
    "lng": 14.3971672,
    "durationByCar": 138,
    "durationByPublicTransport": 352
  },
  {
    "plz": "08396",
    "name": "Wickersdorf",
    "lat": 50.8871319,
    "lng": 12.586579,
    "durationByCar": 62,
    "durationByPublicTransport": 184
  },
  {
    "plz": "02730",
    "name": "Ebersbach/Sa.",
    "lat": 51.0052452,
    "lng": 14.5943678,
    "durationByCar": 140,
    "durationByPublicTransport": 230
  },
  {
    "plz": "08115",
    "name": "Thanhof",
    "lat": 50.6925394,
    "lng": 12.4262965,
    "durationByCar": 84,
    "durationByPublicTransport": 135
  },
  {
    "plz": "07952",
    "name": "Wallengrün",
    "lat": 50.5918585,
    "lng": 11.9943259,
    "durationByCar": 87,
    "durationByPublicTransport": 482
  },
  {
    "plz": "02739",
    "name": "Walddorf",
    "lat": 50.9878413,
    "lng": 14.6508516,
    "durationByCar": 141,
    "durationByPublicTransport": 218
  },
  {
    "plz": "09123",
    "name": "Klaffenbach",
    "lat": 50.7868675,
    "lng": 12.8945945,
    "durationByCar": 71,
    "durationByPublicTransport": 371
  },
  {
    "plz": "04523",
    "name": "Wiederau",
    "lat": 51.1677678,
    "lng": 12.247835,
    "durationByCar": 37,
    "durationByPublicTransport": 61
  },
  {
    "plz": "09481",
    "name": "Schwarzbach",
    "lat": 50.5771254,
    "lng": 12.8681889,
    "durationByCar": 91,
    "durationByPublicTransport": 524
  },
  {
    "plz": "04319",
    "name": "Paunsdorf",
    "lat": 51.3433862,
    "lng": 12.4886095,
    "durationByCar": 32,
    "durationByPublicTransport": 51
  },
  {
    "plz": "09575",
    "name": "Kleinhartmannsdorf",
    "lat": 50.7922423,
    "lng": 13.2432804,
    "durationByCar": 98,
    "durationByPublicTransport": 548
  },
  {
    "plz": "09125",
    "name": "Reichenhain",
    "lat": 50.7941097,
    "lng": 12.9331275,
    "durationByCar": 72,
    "durationByPublicTransport": 369
  },
  {
    "plz": "09385",
    "name": "Ursprung",
    "lat": 50.7399531,
    "lng": 12.7466648,
    "durationByCar": 72,
    "durationByPublicTransport": 164
  },
  {
    "plz": "04571",
    "name": "Rötha",
    "lat": 51.1958824,
    "lng": 12.427564,
    "durationByCar": 36,
    "durationByPublicTransport": 76
  },
  {
    "plz": "08265",
    "name": "Landwüst",
    "lat": 50.3150096,
    "lng": 12.3787367,
    "durationByCar": 127,
    "durationByPublicTransport": 236
  },
  {
    "plz": "04129",
    "name": "Eutritzsch",
    "lat": 51.3616353,
    "lng": 12.39006,
    "durationByCar": 16,
    "durationByPublicTransport": 42
  },
  {
    "plz": "09557",
    "name": "Flöha",
    "lat": 50.8514887,
    "lng": 13.095616,
    "durationByCar": 86,
    "durationByPublicTransport": 456
  },
  {
    "plz": "01454",
    "name": "Wachau",
    "lat": 51.13721530000001,
    "lng": 13.9178698,
    "durationByCar": 90,
    "durationByPublicTransport": 241
  },
  {
    "plz": "01109",
    "name": "Wilschdorf",
    "lat": 51.1173979,
    "lng": 13.7283149,
    "durationByCar": 79,
    "durationByPublicTransport": 158
  },
  {
    "plz": "01558",
    "name": "Zschauitz",
    "lat": 51.2884296,
    "lng": 13.5441928,
    "durationByCar": 105,
    "durationByPublicTransport": 170
  },
  {
    "plz": "02794",
    "name": "Spitzkunnersdorf",
    "lat": 50.9549285,
    "lng": 14.651938,
    "durationByCar": 147,
    "durationByPublicTransport": 431
  },
  {
    "plz": "01616",
    "name": "Unterreußen",
    "lat": 51.3639725,
    "lng": 13.2150623,
    "durationByCar": 81,
    "durationByPublicTransport": 134
  },
  {
    "plz": "09509",
    "name": "Wernsdorf",
    "lat": 50.7037331,
    "lng": 13.2257882,
    "durationByCar": 105,
    "durationByPublicTransport": 540
  },
  {
    "plz": "01737",
    "name": "Tharandt",
    "lat": 50.9700656,
    "lng": 13.5362012,
    "durationByCar": 89,
    "durationByPublicTransport": 207
  },
  {
    "plz": "01609",
    "name": "Wülknitz",
    "lat": 51.3890612,
    "lng": 13.4140191,
    "durationByCar": 95,
    "durationByPublicTransport": 97
  },
  {
    "plz": "02742",
    "name": "Neusalza-Spremberg",
    "lat": 51.0381065,
    "lng": 14.5276538,
    "durationByCar": 135,
    "durationByPublicTransport": 203
  },
  {
    "plz": "01896",
    "name": "Pulsnitz",
    "lat": 51.1905921,
    "lng": 14.0051025,
    "durationByCar": 94,
    "durationByPublicTransport": 186
  },
  {
    "plz": "08141",
    "name": "Vielau",
    "lat": 50.6934889,
    "lng": 12.5462188,
    "durationByCar": 75,
    "durationByPublicTransport": 157
  },
  {
    "plz": "01067",
    "name": "Wilsdruffer Vorstadt",
    "lat": 51.05754959999999,
    "lng": 13.7170648,
    "durationByCar": 81,
    "durationByPublicTransport": 143
  },
  {
    "plz": "08548",
    "name": "Syrau",
    "lat": 50.5435385,
    "lng": 12.0782827,
    "durationByCar": 95,
    "durationByPublicTransport": 194
  },
  {
    "plz": "01778",
    "name": "Müglitz",
    "lat": 50.7569262,
    "lng": 13.7923125,
    "durationByCar": 107,
    "durationByPublicTransport": 264
  },
  {
    "plz": "09113",
    "name": "Hilbersdorf",
    "lat": 50.8460084,
    "lng": 12.9101142,
    "durationByCar": 69,
    "durationByPublicTransport": 161
  },
  {
    "plz": "09126",
    "name": "Sonnenberg",
    "lat": 50.8191139,
    "lng": 12.9376782,
    "durationByCar": 74,
    "durationByPublicTransport": 196
  },
  {
    "plz": "09405",
    "name": "Krumhermersdorf",
    "lat": 50.747343,
    "lng": 13.0745827,
    "durationByCar": 88,
    "durationByPublicTransport": 468
  },
  {
    "plz": "04736",
    "name": "Rauschenthal",
    "lat": 51.0737877,
    "lng": 13.0277019,
    "durationByCar": 66,
    "durationByPublicTransport": 134
  },
  {
    "plz": "04827",
    "name": "Posthausen",
    "lat": 51.35848679999999,
    "lng": 12.6286071,
    "durationByCar": 42,
    "durationByPublicTransport": 65
  },
  {
    "plz": "01189",
    "name": "Kaitz",
    "lat": 51.0144934,
    "lng": 13.6972162,
    "durationByCar": 84,
    "durationByPublicTransport": 159
  },
  {
    "plz": "04741",
    "name": "Zweinig",
    "lat": 51.0759242,
    "lng": 13.1732341,
    "durationByCar": 58,
    "durationByPublicTransport": 146
  },
  {
    "plz": "01689",
    "name": "Weinböhla",
    "lat": 51.1810234,
    "lng": 13.5509434,
    "durationByCar": 93,
    "durationByPublicTransport": 130
  },
  {
    "plz": "01239",
    "name": "Torna",
    "lat": 50.9957514,
    "lng": 13.7886884,
    "durationByCar": 82,
    "durationByPublicTransport": 176
  },
  {
    "plz": "08373",
    "name": "Weidensdorf",
    "lat": 50.8553613,
    "lng": 12.5643008,
    "durationByCar": 67,
    "durationByPublicTransport": 173
  },
  {
    "plz": "02899",
    "name": "Schönau-Berzdorf a. d. Eigen",
    "lat": 51.01567120000001,
    "lng": 14.9313425,
    "durationByCar": 147,
    "durationByPublicTransport": 405
  },
  {
    "plz": "01259",
    "name": "Zschieren",
    "lat": 51.0009506,
    "lng": 13.8564276,
    "durationByCar": 93,
    "durationByPublicTransport": 213
  },
  {
    "plz": "04229",
    "name": "Schleußig",
    "lat": 51.322446,
    "lng": 12.3379646,
    "durationByCar": 8,
    "durationByPublicTransport": 28
  },
  {
    "plz": "08248",
    "name": "Mühlleithen",
    "lat": 50.3933464,
    "lng": 12.4781284,
    "durationByCar": 128,
    "durationByPublicTransport": 227
  },
  {
    "plz": "02828",
    "name": "Ober-Neundorf",
    "lat": 51.1614467,
    "lng": 14.9740736,
    "durationByCar": 129,
    "durationByPublicTransport": 248
  },
  {
    "plz": "08412",
    "name": "Werdau",
    "lat": 50.7410097,
    "lng": 12.3756777,
    "durationByCar": 86,
    "durationByPublicTransport": 125
  },
  {
    "plz": "09249",
    "name": "Taura",
    "lat": 50.9176492,
    "lng": 12.8433679,
    "durationByCar": 65,
    "durationByPublicTransport": 158
  },
  {
    "plz": "09356",
    "name": "St. Egidien",
    "lat": 50.789161,
    "lng": 12.6145217,
    "durationByCar": 73,
    "durationByPublicTransport": 358
  },
  {
    "plz": "07919",
    "name": "Mühltroff",
    "lat": 50.53946579999999,
    "lng": 11.9289489,
    "durationByCar": 83,
    "durationByPublicTransport": 482
  },
  {
    "plz": "08352",
    "name": "Raschau",
    "lat": 50.5201329,
    "lng": 12.8525401,
    "durationByCar": 105,
    "durationByPublicTransport": 522
  },
  {
    "plz": "08428",
    "name": "Trünzig",
    "lat": 50.7498561,
    "lng": 12.2931088,
    "durationByCar": 89,
    "durationByPublicTransport": 174
  },
  {
    "plz": "08312",
    "name": "Lauter",
    "lat": 50.5554494,
    "lng": 12.7244132,
    "durationByCar": 93,
    "durationByPublicTransport": 209
  },
  {
    "plz": "01587",
    "name": "Leutewitz",
    "lat": 51.3037968,
    "lng": 13.2670518,
    "durationByCar": 78,
    "durationByPublicTransport": 103
  },
  {
    "plz": "04179",
    "name": "Neulindenau",
    "lat": 51.3486621,
    "lng": 12.3166973,
    "durationByCar": 6,
    "durationByPublicTransport": 21
  },
  {
    "plz": "09638",
    "name": "Weigmannsdorf",
    "lat": 50.8443096,
    "lng": 13.4059465,
    "durationByCar": 93,
    "durationByPublicTransport": 453
  },
  {
    "plz": "08289",
    "name": "Schneeberg",
    "lat": 50.59098290000001,
    "lng": 12.6400263,
    "durationByCar": 89,
    "durationByPublicTransport": 177
  },
  {
    "plz": "04158",
    "name": "Wiederitzsch",
    "lat": 51.40389760000001,
    "lng": 12.3230746,
    "durationByCar": 26,
    "durationByPublicTransport": 83
  },
  {
    "plz": "02797",
    "name": "Oybin, Kurort",
    "lat": 50.8412532,
    "lng": 14.7423869,
    "durationByCar": 166,
    "durationByPublicTransport": 547
  },
  {
    "plz": "01662",
    "name": "Meißen",
    "lat": 51.1632952,
    "lng": 13.475152,
    "durationByCar": 83,
    "durationByPublicTransport": 488
  },
  {
    "plz": "08527",
    "name": "Unterlosa",
    "lat": 50.4862985,
    "lng": 12.1381551,
    "durationByCar": 100,
    "durationByPublicTransport": 467
  },
  {
    "plz": "04289",
    "name": "Probstheida",
    "lat": 51.2938064,
    "lng": 12.4314657,
    "durationByCar": 27,
    "durationByPublicTransport": 59
  },
  {
    "plz": "01127",
    "name": "Trachenberge",
    "lat": 51.0779366,
    "lng": 13.7224379,
    "durationByCar": 79,
    "durationByPublicTransport": 177
  },
  {
    "plz": "04356",
    "name": "Seehausen",
    "lat": 51.419556,
    "lng": 12.4257821,
    "durationByCar": 32,
    "durationByPublicTransport": 63
  },
  {
    "plz": "04357",
    "name": "Mockau-Süd",
    "lat": 51.3751912,
    "lng": 12.4127633,
    "durationByCar": 21,
    "durationByPublicTransport": 39
  },
  {
    "plz": "04159",
    "name": "Möckern",
    "lat": 51.3792234,
    "lng": 12.3046822,
    "durationByCar": 19,
    "durationByPublicTransport": 65
  },
  {
    "plz": "08499",
    "name": "Obermylau",
    "lat": 50.6240772,
    "lng": 12.2624314,
    "durationByCar": 94,
    "durationByPublicTransport": 144
  },
  {
    "plz": "04657",
    "name": "Rathendorf",
    "lat": 51.01623,
    "lng": 12.7169869,
    "durationByCar": 53,
    "durationByPublicTransport": 98
  },
  {
    "plz": "02727",
    "name": "Neugersdorf",
    "lat": 50.9773042,
    "lng": 14.6094086,
    "durationByCar": 144,
    "durationByPublicTransport": 225
  },
  {
    "plz": "08496",
    "name": "Schönbach",
    "lat": 50.66038950000001,
    "lng": 12.355939,
    "durationByCar": 91,
    "durationByPublicTransport": 119
  },
  {
    "plz": "09488",
    "name": "Wiesa",
    "lat": 50.61050179999999,
    "lng": 13.0203444,
    "durationByCar": 104,
    "durationByPublicTransport": 552
  },
  {
    "plz": "08062",
    "name": "Neuplanitz",
    "lat": 50.6968141,
    "lng": 12.4676488,
    "durationByCar": 88,
    "durationByPublicTransport": 386
  },
  {
    "plz": "04315",
    "name": "Volkmarsdorf",
    "lat": 51.34400309999999,
    "lng": 12.4100607,
    "durationByCar": 20,
    "durationByPublicTransport": 42
  },
  {
    "plz": "02791",
    "name": "Oberoderwitz",
    "lat": 50.9564824,
    "lng": 14.7224231,
    "durationByCar": 141,
    "durationByPublicTransport": 230
  },
  {
    "plz": "08239",
    "name": "Trieb/Vogtl.",
    "lat": 50.4797993,
    "lng": 12.2906614,
    "durationByCar": 103,
    "durationByPublicTransport": 190
  },
  {
    "plz": "01069",
    "name": "Südvorstadt-West",
    "lat": 51.0391349,
    "lng": 13.7376748,
    "durationByCar": 88,
    "durationByPublicTransport": 137
  },
  {
    "plz": "04349",
    "name": "Thekla",
    "lat": 51.3800901,
    "lng": 12.4347137,
    "durationByCar": 25,
    "durationByPublicTransport": 49
  },
  {
    "plz": "04317",
    "name": "Reudnitz-Thonberg",
    "lat": 51.33037540000001,
    "lng": 12.40504,
    "durationByCar": 18,
    "durationByPublicTransport": 42
  },
  {
    "plz": "01904",
    "name": "Weifa",
    "lat": 51.09696959999999,
    "lng": 14.3066911,
    "durationByCar": 116,
    "durationByPublicTransport": 199
  },
  {
    "plz": "08228",
    "name": "Rützengrün",
    "lat": 50.5311154,
    "lng": 12.4056694,
    "durationByCar": 96,
    "durationByPublicTransport": 194
  },
  {
    "plz": "09247",
    "name": "Röhrsdorf",
    "lat": 50.860909,
    "lng": 12.8362695,
    "durationByCar": 63,
    "durationByPublicTransport": 373
  },
  {
    "plz": "08237",
    "name": "Wildenau",
    "lat": 50.5390715,
    "lng": 12.5026751,
    "durationByCar": 98,
    "durationByPublicTransport": 224
  },
  {
    "plz": "04347",
    "name": "Schönefeld-Ost",
    "lat": 51.35848499999999,
    "lng": 12.4239486,
    "durationByCar": 24,
    "durationByPublicTransport": 56
  },
  {
    "plz": "09468",
    "name": "Tannenberg",
    "lat": 50.6244455,
    "lng": 12.9084058,
    "durationByCar": 91,
    "durationByPublicTransport": 538
  },
  {
    "plz": "02689",
    "name": "Wehrsdorf",
    "lat": 51.0445876,
    "lng": 14.4271742,
    "durationByCar": 131,
    "durationByPublicTransport": 207
  },
  {
    "plz": "04299",
    "name": "Stötteritz",
    "lat": 51.3200403,
    "lng": 12.4260263,
    "durationByCar": 23,
    "durationByPublicTransport": 37
  },
  {
    "plz": "04275",
    "name": "Südvorstadt",
    "lat": 51.3216185,
    "lng": 12.3706068,
    "durationByCar": 13,
    "durationByPublicTransport": 29
  },
  {
    "plz": "09437",
    "name": "Witzschdorf",
    "lat": 50.7508034,
    "lng": 13.1412709,
    "durationByCar": 97,
    "durationByPublicTransport": 529
  },
  {
    "plz": "02799",
    "name": "Waltersdorf",
    "lat": 50.8689884,
    "lng": 14.6497109,
    "durationByCar": 158,
    "durationByPublicTransport": 498
  },
  {
    "plz": "09228",
    "name": "Wittgensdorf",
    "lat": 50.8823933,
    "lng": 12.8686772,
    "durationByCar": 65,
    "durationByPublicTransport": 165
  },
  {
    "plz": "04105",
    "name": "Zentrum-Nordwest",
    "lat": 51.3492577,
    "lng": 12.3610062,
    "durationByCar": 8,
    "durationByPublicTransport": 32
  },
  {
    "plz": "04103",
    "name": "Zentrum-Südost",
    "lat": 51.3302732,
    "lng": 12.3891818,
    "durationByCar": 17,
    "durationByPublicTransport": 43
  },
  {
    "plz": "04107",
    "name": "Zentrum-Süd",
    "lat": 51.3296542,
    "lng": 12.3734503,
    "durationByCar": 12,
    "durationByPublicTransport": 33
  },
  {
    "plz": "04109",
    "name": "Zentrum-West",
    "lat": 51.3383504,
    "lng": 12.3634475,
    "durationByCar": 10,
    "durationByPublicTransport": 18
  },
  {
    "plz": "08267",
    "name": "Zwota",
    "lat": 50.3542025,
    "lng": 12.4335106,
    "durationByCar": 121,
    "durationByPublicTransport": 207
  }
]
